CCSDS_OMM_VERS = 2.0
CREATION_DATE  = 
ORIGINATOR     = 

OBJECT_NAME    = H-2A R/B
OBJECT_ID      = 2006-002B
CENTER_NAME    = EARTH
REF_FRAME      = TEME
TIME_SYSTEM    = UTC
MEAN_ELEMENT_THEORY = SGP/SGP4

EPOCH          = 2026-03-16T03:23:43.916064
MEAN_MOTION    = 15.16572526
ECCENTRICITY   = .00519848
INCLINATION    = 98.2415
RA_OF_ASC_NODE = 222.7213
ARG_OF_PERICENTER = 218.8437
MEAN_ANOMALY   = 140.9053

EPHEMERIS_TYPE = 0
CLASSIFICATION_TYPE = U
NORAD_CAT_ID   = 28932
ELEMENT_SET_NO = 999
REV_AT_EPOCH   = 9541
BSTAR          = .50698365E-3
MEAN_MOTION_DOT = .10169E-3
MEAN_MOTION_DDOT = 0

CCSDS_OMM_VERS = 2.0
CREATION_DATE  = 
ORIGINATOR     = 

OBJECT_NAME    = RESURS-DK 1
OBJECT_ID      = 2006-021A
CENTER_NAME    = EARTH
REF_FRAME      = TEME
TIME_SYSTEM    = UTC
MEAN_ELEMENT_THEORY = SGP/SGP4

EPOCH          = 2026-03-16T03:32:45.677760
MEAN_MOTION    = 15.12794613
ECCENTRICITY   = .00012021
INCLINATION    = 69.9327
RA_OF_ASC_NODE = 220.3162
ARG_OF_PERICENTER = 152.5778
MEAN_ANOMALY   = 207.5452

EPHEMERIS_TYPE = 0
CLASSIFICATION_TYPE = U
NORAD_CAT_ID   = 29228
ELEMENT_SET_NO = 999
REV_AT_EPOCH   = 8850
BSTAR          = .1973756E-3
MEAN_MOTION_DOT = .3366E-4
MEAN_MOTION_DDOT = 0

CCSDS_OMM_VERS = 2.0
CREATION_DATE  = 
ORIGINATOR     = 

OBJECT_NAME    = CZ-4B R/B
OBJECT_ID      = 2006-046C
CENTER_NAME    = EARTH
REF_FRAME      = TEME
TIME_SYSTEM    = UTC
MEAN_ELEMENT_THEORY = SGP/SGP4

EPOCH          = 2026-03-16T01:46:07.393152
MEAN_MOTION    = 15.16974621
ECCENTRICITY   = .00318231
INCLINATION    = 97.5587
RA_OF_ASC_NODE = 119.9656
ARG_OF_PERICENTER = 244.1630
MEAN_ANOMALY   = 115.6320

EPHEMERIS_TYPE = 0
CLASSIFICATION_TYPE = U
NORAD_CAT_ID   = 29507
ELEMENT_SET_NO = 999
REV_AT_EPOCH   = 6101
BSTAR          = .25929135E-3
MEAN_MOTION_DOT = .5115E-4
MEAN_MOTION_DDOT = 0

CCSDS_OMM_VERS = 2.0
CREATION_DATE  = 
ORIGINATOR     = 

OBJECT_NAME    = CZ-2C R/B
OBJECT_ID      = 2007-010B
CENTER_NAME    = EARTH
REF_FRAME      = TEME
TIME_SYSTEM    = UTC
MEAN_ELEMENT_THEORY = SGP/SGP4

EPOCH          = 2026-03-16T04:58:31.624608
MEAN_MOTION    = 14.20248709
ECCENTRICITY   = .00578332
INCLINATION    = 98.3984
RA_OF_ASC_NODE = 188.1595
ARG_OF_PERICENTER = 275.3053
MEAN_ANOMALY   = 84.1528

EPHEMERIS_TYPE = 0
CLASSIFICATION_TYPE = U
NORAD_CAT_ID   = 31114
ELEMENT_SET_NO = 999
REV_AT_EPOCH   = 98064
BSTAR          = .78115733E-4
MEAN_MOTION_DOT = .128E-5
MEAN_MOTION_DDOT = 0

CCSDS_OMM_VERS = 2.0
CREATION_DATE  = 
ORIGINATOR     = 

OBJECT_NAME    = COSMO-SKYMED 1
OBJECT_ID      = 2007-023A
CENTER_NAME    = EARTH
REF_FRAME      = TEME
TIME_SYSTEM    = UTC
MEAN_ELEMENT_THEORY = SGP/SGP4

EPOCH          = 2026-03-16T06:48:32.919840
MEAN_MOTION    = 14.96595017
ECCENTRICITY   = .00015903
INCLINATION    = 97.8884
RA_OF_ASC_NODE = 266.3692
ARG_OF_PERICENTER = 92.2756
MEAN_ANOMALY   = 267.8647

EPHEMERIS_TYPE = 0
CLASSIFICATION_TYPE = U
NORAD_CAT_ID   = 31598
ELEMENT_SET_NO = 999
REV_AT_EPOCH   = 1589
BSTAR          = .3717947E-3
MEAN_MOTION_DOT = .4175E-4
MEAN_MOTION_DDOT = 0

CCSDS_OMM_VERS = 2.0
CREATION_DATE  = 
ORIGINATOR     = 

OBJECT_NAME    = COSMOS 2428
OBJECT_ID      = 2007-029A
CENTER_NAME    = EARTH
REF_FRAME      = TEME
TIME_SYSTEM    = UTC
MEAN_ELEMENT_THEORY = SGP/SGP4

EPOCH          = 2026-03-16T06:14:45.344256
MEAN_MOTION    = 14.12947223
ECCENTRICITY   = .00093768
INCLINATION    = 70.9439
RA_OF_ASC_NODE = 189.5527
ARG_OF_PERICENTER = 270.4203
MEAN_ANOMALY   = 89.5844

EPHEMERIS_TYPE = 0
CLASSIFICATION_TYPE = U
NORAD_CAT_ID   = 31792
ELEMENT_SET_NO = 999
REV_AT_EPOCH   = 96502
BSTAR          = .18570935E-4
MEAN_MOTION_DOT = -.13E-6
MEAN_MOTION_DDOT = 0

CCSDS_OMM_VERS = 2.0
CREATION_DATE  = 
ORIGINATOR     = 

OBJECT_NAME    = SL-16 R/B
OBJECT_ID      = 2007-029B
CENTER_NAME    = EARTH
REF_FRAME      = TEME
TIME_SYSTEM    = UTC
MEAN_ELEMENT_THEORY = SGP/SGP4

EPOCH          = 2026-03-15T15:55:56.073216
MEAN_MOTION    = 14.14835963
ECCENTRICITY   = .00022711
INCLINATION    = 70.9757
RA_OF_ASC_NODE = 159.8277
ARG_OF_PERICENTER = 276.2076
MEAN_ANOMALY   = 246.2511

EPHEMERIS_TYPE = 0
CLASSIFICATION_TYPE = U
NORAD_CAT_ID   = 31793
ELEMENT_SET_NO = 999
REV_AT_EPOCH   = 96621
BSTAR          = .16674816E-3
MEAN_MOTION_DOT = .274E-5
MEAN_MOTION_DDOT = 0

CCSDS_OMM_VERS = 2.0
CREATION_DATE  = 
ORIGINATOR     = 

OBJECT_NAME    = KORONAS-FOTON
OBJECT_ID      = 2009-003A
CENTER_NAME    = EARTH
REF_FRAME      = TEME
TIME_SYSTEM    = UTC
MEAN_ELEMENT_THEORY = SGP/SGP4

EPOCH          = 2026-03-16T05:56:43.516896
MEAN_MOTION    = 15.43485725
ECCENTRICITY   = .00116723
INCLINATION    = 82.4272
RA_OF_ASC_NODE = 269.0586
ARG_OF_PERICENTER = 128.1379
MEAN_ANOMALY   = 232.0922

EPHEMERIS_TYPE = 0
CLASSIFICATION_TYPE = U
NORAD_CAT_ID   = 33504
ELEMENT_SET_NO = 999
REV_AT_EPOCH   = 94675
BSTAR          = .29987924E-3
MEAN_MOTION_DOT = .13504E-3
MEAN_MOTION_DDOT = 0

CCSDS_OMM_VERS = 2.0
CREATION_DATE  = 
ORIGINATOR     = 

OBJECT_NAME    = CZ-2C R/B
OBJECT_ID      = 2011-030B
CENTER_NAME    = EARTH
REF_FRAME      = TEME
TIME_SYSTEM    = UTC
MEAN_ELEMENT_THEORY = SGP/SGP4

EPOCH          = 2026-03-16T03:43:04.682784
MEAN_MOTION    = 14.81247325
ECCENTRICITY   = .00518763
INCLINATION    = 97.8554
RA_OF_ASC_NODE = 32.2890
ARG_OF_PERICENTER = 330.8895
MEAN_ANOMALY   = 39.1475

EPHEMERIS_TYPE = 0
CLASSIFICATION_TYPE = U
NORAD_CAT_ID   = 37731
ELEMENT_SET_NO = 999
REV_AT_EPOCH   = 79105
BSTAR          = .19504803E-3
MEAN_MOTION_DOT = .15E-4
MEAN_MOTION_DDOT = 0

CCSDS_OMM_VERS = 2.0
CREATION_DATE  = 
ORIGINATOR     = 

OBJECT_NAME    = H-2A R/B
OBJECT_ID      = 2012-025E
CENTER_NAME    = EARTH
REF_FRAME      = TEME
TIME_SYSTEM    = UTC
MEAN_ELEMENT_THEORY = SGP/SGP4

EPOCH          = 2026-03-16T03:40:22.058112
MEAN_MOTION    = 14.95217587
ECCENTRICITY   = .00432853
INCLINATION    = 98.4733
RA_OF_ASC_NODE = 42.7169
ARG_OF_PERICENTER = 292.5527
MEAN_ANOMALY   = 67.1113

EPHEMERIS_TYPE = 0
CLASSIFICATION_TYPE = U
NORAD_CAT_ID   = 38341
ELEMENT_SET_NO = 999
REV_AT_EPOCH   = 74918
BSTAR          = .21578591E-3
MEAN_MOTION_DOT = .2346E-4
MEAN_MOTION_DDOT = 0

CCSDS_OMM_VERS = 2.0
CREATION_DATE  = 
ORIGINATOR     = 

OBJECT_NAME    = SHIJIAN-16 (SJ-16)
OBJECT_ID      = 2013-057A
CENTER_NAME    = EARTH
REF_FRAME      = TEME
TIME_SYSTEM    = UTC
MEAN_ELEMENT_THEORY = SGP/SGP4

EPOCH          = 2026-03-16T07:59:18.418848
MEAN_MOTION    = 14.92377507
ECCENTRICITY   = .00154097
INCLINATION    = 74.9734
RA_OF_ASC_NODE = 172.5132
ARG_OF_PERICENTER = 95.5259
MEAN_ANOMALY   = 264.7687

EPHEMERIS_TYPE = 0
CLASSIFICATION_TYPE = U
NORAD_CAT_ID   = 39358
ELEMENT_SET_NO = 999
REV_AT_EPOCH   = 67249
BSTAR          = .1327071E-3
MEAN_MOTION_DOT = .1332E-4
MEAN_MOTION_DDOT = 0

CCSDS_OMM_VERS = 2.0
CREATION_DATE  = 
ORIGINATOR     = 

OBJECT_NAME    = SL-4 R/B
OBJECT_ID      = 2014-021B
CENTER_NAME    = EARTH
REF_FRAME      = TEME
TIME_SYSTEM    = UTC
MEAN_ELEMENT_THEORY = SGP/SGP4

EPOCH          = 2026-03-15T22:13:58.482912
MEAN_MOTION    = 15.39397720
ECCENTRICITY   = .00969595
INCLINATION    = 51.6065
RA_OF_ASC_NODE = 306.8490
ARG_OF_PERICENTER = 125.7536
MEAN_ANOMALY   = 235.2512

EPHEMERIS_TYPE = 0
CLASSIFICATION_TYPE = U
NORAD_CAT_ID   = 39679
ELEMENT_SET_NO = 999
REV_AT_EPOCH   = 65723
BSTAR          = .32012714E-3
MEAN_MOTION_DOT = .14573E-3
MEAN_MOTION_DDOT = 0

