H-2A R/B                
1 28932U 06002B   26075.14148051  .00010169  00000+0  50698-3 0  9993
2 28932  98.2415 222.7213 0051984 218.8437 140.9053 15.16572526 95415
RESURS-DK 1             
1 29228U 06021A   26075.14775090  .00003366  00000+0  19738-3 0  9993
2 29228  69.9327 220.3162 0001202 152.5778 207.5452 15.12794613 88502
CZ-4B R/B               
1 29507U 06046C   26075.07369668  .00005115  00000+0  25929-3 0  9995
2 29507  97.5587 119.9656 0031823 244.1630 115.6320 15.16974621 61018
CZ-2C R/B               
1 31114U 07010B   26075.20731047  .00000128  00000+0  78116-4 0  9999
2 31114  98.3984 188.1595 0057833 275.3053  84.1528 14.20248709980643
COSMO-SKYMED 1          
1 31598U 07023A   26075.28371435  .00004175  00000+0  37179-3 0  9997
2 31598  97.8884 266.3692 0001590  92.2756 267.8647 14.96595017 15892
COSMOS 2428             
1 31792U 07029A   26075.26024704 -.00000013  00000+0  18571-4 0  9995
2 31792  70.9439 189.5527 0009376 270.4203  89.5844 14.12947223965021
SL-16 R/B               
1 31793U 07029B   26074.66384344  .00000274  00000+0  16675-3 0  9998
2 31793  70.9757 159.8277 0002271 276.2076 246.2511 14.14835963966210
KORONAS-FOTON           
1 33504U 09003A   26075.24772589  .00013504  00000+0  29988-3 0  9992
2 33504  82.4272 269.0586 0011672 128.1379 232.0922 15.43485725946751
CZ-2C R/B               
1 37731U 11030B   26075.15491531  .00001500  00000+0  19505-3 0  9993
2 37731  97.8554  32.2890 0051876 330.8895  39.1475 14.81247325791056
H-2A R/B                
1 38341U 12025E   26075.15303308  .00002346  00000+0  21579-3 0  9993
2 38341  98.4733  42.7169 0043285 292.5527  67.1113 14.95217587749185
SHIJIAN-16 (SJ-16)      
1 39358U 13057A   26075.33285207  .00001332  00000+0  13271-3 0  9999
2 39358  74.9734 172.5132 0015409  95.5259 264.7687 14.92377507672492
SL-4 R/B                
1 39679U 14021B   26074.92637133  .00014573  00000+0  32013-3 0  9996
2 39679  51.6065 306.8490 0096959 125.7536 235.2512 15.39397720657235
